[{"OBJECT_NAME":"METEOSAT-11 (MSG-4)","OBJECT_ID":"2015-034A","EPOCH":"2026-03-06T19:08:12.196032","MEAN_MOTION":1.00266852,"ECCENTRICITY":0.0001807,"INCLINATION":2.9437,"RA_OF_ASC_NODE":71.6666,"ARG_OF_PERICENTER":271.0228,"MEAN_ANOMALY":118.2219,"EPHEMERIS_TYPE":0,"CLASSIFICATION_TYPE":"U","NORAD_CAT_ID":40732,"ELEMENT_SET_NO":999,"REV_AT_EPOCH":619,"BSTAR":0,"MEAN_MOTION_DOT":5.9e-7,"MEAN_MOTION_DDOT":0},{"OBJECT_NAME":"ELEKTRO-L 2","OBJECT_ID":"2015-074A","EPOCH":"2026-03-06T20:44:01.145760","MEAN_MOTION":1.00271066,"ECCENTRICITY":0.0003279,"INCLINATION":6.4373,"RA_OF_ASC_NODE":71.783,"ARG_OF_PERICENTER":242.4752,"MEAN_ANOMALY":146.8105,"EPHEMERIS_TYPE":0,"CLASSIFICATION_TYPE":"U","NORAD_CAT_ID":41105,"ELEMENT_SET_NO":999,"REV_AT_EPOCH":3748,"BSTAR":0,"MEAN_MOTION_DOT":-1.19e-6,"MEAN_MOTION_DDOT":0},{"OBJECT_NAME":"INSAT-3DR","OBJECT_ID":"2016-054A","EPOCH":"2026-03-06T13:02:50.694720","MEAN_MOTION":1.00272687,"ECCENTRICITY":0.0013059,"INCLINATION":0.0528,"RA_OF_ASC_NODE":95.2916,"ARG_OF_PERICENTER":186.845,"MEAN_ANOMALY":151.8186,"EPHEMERIS_TYPE":0,"CLASSIFICATION_TYPE":"U","NORAD_CAT_ID":41752,"ELEMENT_SET_NO":999,"REV_AT_EPOCH":3478,"BSTAR":0,"MEAN_MOTION_DOT":-8.1e-7,"MEAN_MOTION_DDOT":0},{"OBJECT_NAME":"HIMAWARI-9","OBJECT_ID":"2016-064A","EPOCH":"2026-03-06T19:45:38.607264","MEAN_MOTION":1.00271706,"ECCENTRICITY":0.0001263,"INCLINATION":0.0138,"RA_OF_ASC_NODE":164.4008,"ARG_OF_PERICENTER":214.748,"MEAN_ANOMALY":222.576,"EPHEMERIS_TYPE":0,"CLASSIFICATION_TYPE":"U","NORAD_CAT_ID":41836,"ELEMENT_SET_NO":999,"REV_AT_EPOCH":3418,"BSTAR":0,"MEAN_MOTION_DOT":-2.78e-6,"MEAN_MOTION_DDOT":0},{"OBJECT_NAME":"GOES 16","OBJECT_ID":"2016-071A","EPOCH":"2026-03-06T13:27:37.352736","MEAN_MOTION":1.00271524,"ECCENTRICITY":0.00023914,"INCLINATION":0.1362,"RA_OF_ASC_NODE":89.1476,"ARG_OF_PERICENTER":221.4894,"MEAN_ANOMALY":310.8421,"EPHEMERIS_TYPE":0,"CLASSIFICATION_TYPE":"U","NORAD_CAT_ID":41866,"ELEMENT_SET_NO":999,"REV_AT_EPOCH":3407,"BSTAR":0,"MEAN_MOTION_DOT":-9.5e-7,"MEAN_MOTION_DDOT":0},{"OBJECT_NAME":"FENGYUN 4A","OBJECT_ID":"2016-077A","EPOCH":"2026-03-06T19:40:46.572672","MEAN_MOTION":1.00278241,"ECCENTRICITY":0.0007272,"INCLINATION":2.0622,"RA_OF_ASC_NODE":81.3883,"ARG_OF_PERICENTER":135.0583,"MEAN_ANOMALY":6.9078,"EPHEMERIS_TYPE":0,"CLASSIFICATION_TYPE":"U","NORAD_CAT_ID":41882,"ELEMENT_SET_NO":999,"REV_AT_EPOCH":3390,"BSTAR":0,"MEAN_MOTION_DOT":-3.6e-6,"MEAN_MOTION_DDOT":0},{"OBJECT_NAME":"CYGFM05","OBJECT_ID":"2016-078A","EPOCH":"2026-03-06T19:20:34.977696","MEAN_MOTION":15.52004953,"ECCENTRICITY":0.0007166,"INCLINATION":34.9572,"RA_OF_ASC_NODE":216.2478,"ARG_OF_PERICENTER":261.3494,"MEAN_ANOMALY":98.6417,"EPHEMERIS_TYPE":0,"CLASSIFICATION_TYPE":"U","NORAD_CAT_ID":41884,"ELEMENT_SET_NO":999,"REV_AT_EPOCH":51281,"BSTAR":0.00050538,"MEAN_MOTION_DOT":0.00031495,"MEAN_MOTION_DDOT":0},{"OBJECT_NAME":"CYGFM04","OBJECT_ID":"2016-078B","EPOCH":"2026-03-06T14:30:53.286624","MEAN_MOTION":15.55405108,"ECCENTRICITY":0.00060641,"INCLINATION":34.933,"RA_OF_ASC_NODE":189.7535,"ARG_OF_PERICENTER":293.1031,"MEAN_ANOMALY":66.9053,"EPHEMERIS_TYPE":0,"CLASSIFICATION_TYPE":"U","NORAD_CAT_ID":41885,"ELEMENT_SET_NO":999,"REV_AT_EPOCH":51298,"BSTAR":0.0004883212,"MEAN_MOTION_DOT":0.00034462,"MEAN_MOTION_DDOT":0},{"OBJECT_NAME":"CYGFM02","OBJECT_ID":"2016-078C","EPOCH":"2026-03-06T15:19:38.639424","MEAN_MOTION":15.57683559,"ECCENTRICITY":0.00070445,"INCLINATION":34.9415,"RA_OF_ASC_NODE":186.496,"ARG_OF_PERICENTER":295.2069,"MEAN_ANOMALY":64.7925,"EPHEMERIS_TYPE":0,"CLASSIFICATION_TYPE":"U","NORAD_CAT_ID":41886,"ELEMENT_SET_NO":999,"REV_AT_EPOCH":51313,"BSTAR":0.00051412603,"MEAN_MOTION_DOT":0.00039545,"MEAN_MOTION_DDOT":0},{"OBJECT_NAME":"CYGFM01","OBJECT_ID":"2016-078D","EPOCH":"2026-03-06T13:50:29.549760","MEAN_MOTION":15.52431881,"ECCENTRICITY":0.0006805,"INCLINATION":34.94,"RA_OF_ASC_NODE":219.5578,"ARG_OF_PERICENTER":250.7168,"MEAN_ANOMALY":109.2819,"EPHEMERIS_TYPE":0,"CLASSIFICATION_TYPE":"U","NORAD_CAT_ID":41887,"ELEMENT_SET_NO":999,"REV_AT_EPOCH":51272,"BSTAR":0.00049971786,"MEAN_MOTION_DOT":0.00031625,"MEAN_MOTION_DDOT":0},{"OBJECT_NAME":"CYGFM08","OBJECT_ID":"2016-078E","EPOCH":"2026-03-06T13:26:07.368000","MEAN_MOTION":15.53917317,"ECCENTRICITY":0.00082457,"INCLINATION":34.9434,"RA_OF_ASC_NODE":201.5685,"ARG_OF_PERICENTER":276.0029,"MEAN_ANOMALY":83.9755,"EPHEMERIS_TYPE":0,"CLASSIFICATION_TYPE":"U","NORAD_CAT_ID":41888,"ELEMENT_SET_NO":999,"REV_AT_EPOCH":51296,"BSTAR":0.00049767659,"MEAN_MOTION_DOT":0.00033267,"MEAN_MOTION_DDOT":0},{"OBJECT_NAME":"CYGFM07","OBJECT_ID":"2016-078G","EPOCH":"2026-03-06T14:12:27.567072","MEAN_MOTION":15.54613848,"ECCENTRICITY":0.0006649,"INCLINATION":34.9455,"RA_OF_ASC_NODE":189.8234,"ARG_OF_PERICENTER":296.0016,"MEAN_ANOMALY":64.0023,"EPHEMERIS_TYPE":0,"CLASSIFICATION_TYPE":"U","NORAD_CAT_ID":41890,"ELEMENT_SET_NO":999,"REV_AT_EPOCH":51299,"BSTAR":0.00049810357,"MEAN_MOTION_DOT":0.00034144,"MEAN_MOTION_DDOT":0},{"OBJECT_NAME":"CYGFM03","OBJECT_ID":"2016-078H","EPOCH":"2026-03-06T18:08:13.706016","MEAN_MOTION":15.54643358,"ECCENTRICITY":0.0005913,"INCLINATION":34.9409,"RA_OF_ASC_NODE":190.7192,"ARG_OF_PERICENTER":283.1532,"MEAN_ANOMALY":76.8532,"EPHEMERIS_TYPE":0,"CLASSIFICATION_TYPE":"U","NORAD_CAT_ID":41891,"ELEMENT_SET_NO":999,"REV_AT_EPOCH":51299,"BSTAR":0.00050518,"MEAN_MOTION_DOT":0.00034663,"MEAN_MOTION_DDOT":0},{"OBJECT_NAME":"FENGYUN 3D","OBJECT_ID":"2017-072A","EPOCH":"2026-03-06T21:18:07.528032","MEAN_MOTION":14.19714269,"ECCENTRICITY":0.0001692,"INCLINATION":99.0029,"RA_OF_ASC_NODE":38.5181,"ARG_OF_PERICENTER":18.8071,"MEAN_ANOMALY":341.3166,"EPHEMERIS_TYPE":0,"CLASSIFICATION_TYPE":"U","NORAD_CAT_ID":43010,"ELEMENT_SET_NO":999,"REV_AT_EPOCH":43047,"BSTAR":6.6726e-5,"MEAN_MOTION_DOT":9.5e-7,"MEAN_MOTION_DDOT":0},{"OBJECT_NAME":"NOAA 20 (JPSS-1)","OBJECT_ID":"2017-073A","EPOCH":"2026-03-06T14:03:56.944800","MEAN_MOTION":14.1953512,"ECCENTRICITY":0.00010779,"INCLINATION":98.7689,"RA_OF_ASC_NODE":6.0041,"ARG_OF_PERICENTER":141.2468,"MEAN_ANOMALY":218.8786,"EPHEMERIS_TYPE":0,"CLASSIFICATION_TYPE":"U","NORAD_CAT_ID":43013,"ELEMENT_SET_NO":999,"REV_AT_EPOCH":42991,"BSTAR":8.1391e-5,"MEAN_MOTION_DOT":1.27e-6,"MEAN_MOTION_DDOT":0},{"OBJECT_NAME":"GOES 17","OBJECT_ID":"2018-022A","EPOCH":"2026-03-06T13:31:59.435040","MEAN_MOTION":1.0027016,"ECCENTRICITY":0.00021284,"INCLINATION":0.6735,"RA_OF_ASC_NODE":87.5071,"ARG_OF_PERICENTER":225.3094,"MEAN_ANOMALY":324.9405,"EPHEMERIS_TYPE":0,"CLASSIFICATION_TYPE":"U","NORAD_CAT_ID":43226,"ELEMENT_SET_NO":999,"REV_AT_EPOCH":2939,"BSTAR":0,"MEAN_MOTION_DOT":-1.86e-6,"MEAN_MOTION_DDOT":0},{"OBJECT_NAME":"FENGYUN 2H","OBJECT_ID":"2018-050A","EPOCH":"2026-03-06T19:28:10.280640","MEAN_MOTION":1.00272734,"ECCENTRICITY":0.0001682,"INCLINATION":2.7668,"RA_OF_ASC_NODE":80.3318,"ARG_OF_PERICENTER":175.4853,"MEAN_ANOMALY":279.8264,"EPHEMERIS_TYPE":0,"CLASSIFICATION_TYPE":"U","NORAD_CAT_ID":43491,"ELEMENT_SET_NO":999,"REV_AT_EPOCH":2841,"BSTAR":0,"MEAN_MOTION_DOT":-1.3e-6,"MEAN_MOTION_DDOT":0}]
